{
  "type": "FeatureCollection",
  "features": [
    {
      "type": "Feature",
      "properties": {
        "norad_id": 66428,
        "name": "STARLINK-35610",
        "group": "last-30-days",
        "lat": 10.094688528025308,
        "lon": 104.18380214388979,
        "alt_km": 417.3196555733548,
        "timestamp": "2025-12-04T21:36:14.651505+00:00",
        "meta_object_name": "STARLINK-35610",
        "meta_object_id": "2025-259G",
        "meta_epoch": "2025-12-04T14:00:01.000224",
        "meta_mean_motion": 15.50681599,
        "meta_eccentricity": 0.00015728,
        "meta_inclination": 43.0003,
        "meta_ra_of_asc_node": 95.0216,
        "meta_arg_of_pericenter": 282.9646,
        "meta_mean_anomaly": 122.036,
        "meta_ephemeris_type": 0,
        "meta_classification_type": "U",
        "meta_norad_cat_id": 66428,
        "meta_element_set_no": 999,
        "meta_rev_at_epoch": 496,
        "meta_bstar": -0.039164855,
        "meta_mean_motion_dot": -0.02053652,
        "meta_mean_motion_ddot": 0,
        "tle_line1": "1 66428U 25259G   25338.58334491 -.02053652  00000+0 -39165-1 0  9996",
        "tle_line2": "2 66428  43.0003  95.0216 0001572 282.9646 122.0360 15.50681599  4965"
      },
      "geometry": {
        "type": "Point",
        "coordinates": [
          104.18380214388979,
          10.094688528025308
        ]
      }
    },
    {
      "type": "Feature",
      "properties": {
        "norad_id": 66429,
        "name": "STARLINK-35533",
        "group": "last-30-days",
        "lat": 11.807031736137098,
        "lon": 106.12538286191969,
        "alt_km": 413.77995195982203,
        "timestamp": "2025-12-04T21:36:14.651515+00:00",
        "meta_object_name": "STARLINK-35533",
        "meta_object_id": "2025-259H",
        "meta_epoch": "2025-12-04T14:00:01.000224",
        "meta_mean_motion": 15.50733687,
        "meta_eccentricity": 0.00014843,
        "meta_inclination": 43.0004,
        "meta_ra_of_asc_node": 95.0158,
        "meta_arg_of_pericenter": 281.7539,
        "meta_mean_anomaly": 125.1337,
        "meta_ephemeris_type": 0,
        "meta_classification_type": "U",
        "meta_norad_cat_id": 66429,
        "meta_element_set_no": 999,
        "meta_rev_at_epoch": 496,
        "meta_bstar": -0.0092967913,
        "meta_mean_motion_dot": -0.00514217,
        "meta_mean_motion_ddot": 0,
        "tle_line1": "1 66429U 25259H   25338.58334491 -.00514217  00000+0 -92968-2 0  9995",
        "tle_line2": "2 66429  43.0004  95.0158 0001484 281.7539 125.1337 15.50733687  4966"
      },
      "geometry": {
        "type": "Point",
        "coordinates": [
          106.12538286191969,
          11.807031736137098
        ]
      }
    },
    {
      "type": "Feature",
      "properties": {
        "norad_id": 66430,
        "name": "STARLINK-35470",
        "group": "last-30-days",
        "lat": 13.082360511632388,
        "lon": 107.59921898516124,
        "alt_km": 413.635784184783,
        "timestamp": "2025-12-04T21:36:14.651524+00:00",
        "meta_object_name": "STARLINK-35470",
        "meta_object_id": "2025-259J",
        "meta_epoch": "2025-12-04T14:00:01.000224",
        "meta_mean_motion": 15.50536076,
        "meta_eccentricity": 0.00016097,
        "meta_inclination": 43.0004,
        "meta_ra_of_asc_node": 95.0122,
        "meta_arg_of_pericenter": 254.1928,
        "meta_mean_anomaly": 154.6429,
        "meta_ephemeris_type": 0,
        "meta_classification_type": "U",
        "meta_norad_cat_id": 66430,
        "meta_element_set_no": 999,
        "meta_rev_at_epoch": 496,
        "meta_bstar": 0.00032249256,
        "meta_mean_motion_dot": 0.00018593,
        "meta_mean_motion_ddot": 0,
        "tle_line1": "1 66430U 25259J   25338.58334491  .00018593  00000+0  32249-3 0  9998",
        "tle_line2": "2 66430  43.0004  95.0122 0001609 254.1928 154.6429 15.50536076  4966"
      },
      "geometry": {
        "type": "Point",
        "coordinates": [
          107.59921898516124,
          13.082360511632388
        ]
      }
    },
    {
      "type": "Feature",
      "properties": {
        "norad_id": 66431,
        "name": "STARLINK-35439",
        "group": "last-30-days",
        "lat": 14.356705811119891,
        "lon": 109.09515322354099,
        "alt_km": 413.33744595315784,
        "timestamp": "2025-12-04T21:36:14.651534+00:00",
        "meta_object_name": "STARLINK-35439",
        "meta_object_id": "2025-259K",
        "meta_epoch": "2025-12-04T14:00:01.000224",
        "meta_mean_motion": 15.50599009,
        "meta_eccentricity": 0.00016524,
        "meta_inclination": 43.0003,
        "meta_ra_of_asc_node": 95.0065,
        "meta_arg_of_pericenter": 269.4739,
        "meta_mean_anomaly": 141.2794,
        "meta_ephemeris_type": 0,
        "meta_classification_type": "U",
        "meta_norad_cat_id": 66431,
        "meta_element_set_no": 999,
        "meta_rev_at_epoch": 496,
        "meta_bstar": -0.0023294172,
        "meta_mean_motion_dot": -0.00134771,
        "meta_mean_motion_ddot": 0,
        "tle_line1": "1 66431U 25259K   25338.58334491 -.00134771  00000+0 -23294-2 0  9997",
        "tle_line2": "2 66431  43.0003  95.0065 0001652 269.4739 141.2794 15.50599009  4961"
      },
      "geometry": {
        "type": "Point",
        "coordinates": [
          109.09515322354099,
          14.356705811119891
        ]
      }
    },
    {
      "type": "Feature",
      "properties": {
        "norad_id": 66432,
        "name": "STARLINK-35446",
        "group": "last-30-days",
        "lat": 15.593704193697294,
        "lon": 110.5742565932614,
        "alt_km": 412.82767871996657,
        "timestamp": "2025-12-04T21:36:14.651546+00:00",
        "meta_object_name": "STARLINK-35446",
        "meta_object_id": "2025-259L",
        "meta_epoch": "2025-12-04T14:00:01.000224",
        "meta_mean_motion": 15.50570427,
        "meta_eccentricity": 0.00014056,
        "meta_inclination": 43.0004,
        "meta_ra_of_asc_node": 95.0006,
        "meta_arg_of_pericenter": 282.3932,
        "meta_mean_anomaly": 130.2562,
        "meta_ephemeris_type": 0,
        "meta_classification_type": "U",
        "meta_norad_cat_id": 66432,
        "meta_element_set_no": 999,
        "meta_rev_at_epoch": 496,
        "meta_bstar": -0.00084234423,
        "meta_mean_motion_dot": -0.00049431,
        "meta_mean_motion_ddot": 0,
        "tle_line1": "1 66432U 25259L   25338.58334491 -.00049431  00000+0 -84234-3 0  9998",
        "tle_line2": "2 66432  43.0004  95.0006 0001405 282.3932 130.2562 15.50570427  4967"
      },
      "geometry": {
        "type": "Point",
        "coordinates": [
          110.5742565932614,
          15.593704193697294
        ]
      }
    },
    {
      "type": "Feature",
      "properties": {
        "norad_id": 66433,
        "name": "STARLINK-35457",
        "group": "last-30-days",
        "lat": 16.83956555071133,
        "lon": 112.09770999801175,
        "alt_km": 413.08284506740347,
        "timestamp": "2025-12-04T21:36:14.651559+00:00",
        "meta_object_name": "STARLINK-35457",
        "meta_object_id": "2025-259M",
        "meta_epoch": "2025-12-04T14:00:01.000224",
        "meta_mean_motion": 15.50552504,
        "meta_eccentricity": 0.00014923,
        "meta_inclination": 43.0003,
        "meta_ra_of_asc_node": 94.9975,
        "meta_arg_of_pericenter": 258.7466,
        "meta_mean_anomaly": 155.8415,
        "meta_ephemeris_type": 0,
        "meta_classification_type": "U",
        "meta_norad_cat_id": 66433,
        "meta_element_set_no": 999,
        "meta_rev_at_epoch": 496,
        "meta_bstar": -0.00056111166,
        "meta_mean_motion_dot": -0.00033089,
        "meta_mean_motion_ddot": 0,
        "tle_line1": "1 66433U 25259M   25338.58334491 -.00033089  00000+0 -56111-3 0  9994",
        "tle_line2": "2 66433  43.0003  94.9975 0001492 258.7466 155.8415 15.50552504  4961"
      },
      "geometry": {
        "type": "Point",
        "coordinates": [
          112.09770999801175,
          16.83956555071133
        ]
      }
    },
    {
      "type": "Feature",
      "properties": {
        "norad_id": 66434,
        "name": "STARLINK-35389",
        "group": "last-30-days",
        "lat": 18.07036450292479,
        "lon": 113.63498455293266,
        "alt_km": 412.82118837474354,
        "timestamp": "2025-12-04T21:36:14.651569+00:00",
        "meta_object_name": "STARLINK-35389",
        "meta_object_id": "2025-259N",
        "meta_epoch": "2025-12-04T14:00:01.000224",
        "meta_mean_motion": 15.50555774,
        "meta_eccentricity": 0.00013434,
        "meta_inclination": 43.0003,
        "meta_ra_of_asc_node": 94.9928,
        "meta_arg_of_pericenter": 261.542,
        "meta_mean_anomaly": 154.962,
        "meta_ephemeris_type": 0,
        "meta_classification_type": "U",
        "meta_norad_cat_id": 66434,
        "meta_element_set_no": 999,
        "meta_rev_at_epoch": 496,
        "meta_bstar": -0.00064685874,
        "meta_mean_motion_dot": -0.00038074,
        "meta_mean_motion_ddot": 0,
        "tle_line1": "1 66434U 25259N   25338.58334491 -.00038074  00000+0 -64686-3 0  9990",
        "tle_line2": "2 66434  43.0003  94.9928 0001343 261.5420 154.9620 15.50555774  4967"
      },
      "geometry": {
        "type": "Point",
        "coordinates": [
          113.63498455293266,
          18.07036450292479
        ]
      }
    }
  ]
}